{"type": "FeatureCollection", "features": [{"type": "Feature", "properties": {"id": "n1761558584", "name": null, "type": "DRINKING_WATER", "source": "OSM", "bottle": null, "access": null, "opening_hours": null}, "geometry": {"type": "Point", "coordinates": [139.6782998, 35.6781811]}}, {"type": "Feature", "properties": {"id": "n2001800849", "name": null, "type": "DRINKING_WATER", "source": "OSM", "bottle": null, "access": null, "opening_hours": null}, "geometry": {"type": "Point", "coordinates": [139.6999976, 35.6691614]}}, {"type": "Feature", "properties": {"id": "n2001800851", "name": null, "type": "DRINKING_WATER", "source": "OSM", "bottle": null, "access": null, "opening_hours": null}, "geometry": {"type": "Point", "coordinates": [139.694058, 35.6702545]}}, {"type": "Feature", "properties": {"id": "n2001800854", "name": null, "type": "DRINKING_WATER", "source": "OSM", "bottle": null, "access": null, "opening_hours": null}, "geometry": {"type": "Point", "coordinates": [139.6967025, 35.6705993]}}, {"type": "Feature", "properties": {"id": "n2001800866", "name": null, "type": "DRINKING_WATER", "source": "OSM", "bottle": null, "access": null, "opening_hours": null}, "geometry": {"type": "Point", "coordinates": [139.6933739, 35.6715169]}}, {"type": "Feature", "properties": {"id": "n2001800870", "name": null, "type": "DRINKING_WATER", "source": "OSM", "bottle": null, "access": null, "opening_hours": null}, "geometry": {"type": "Point", "coordinates": [139.6925176, 35.6721081]}}, {"type": "Feature", "properties": {"id": "n2376695912", "name": null, "type": "DRINKING_WATER", "source": "OSM", "bottle": null, "access": null, "opening_hours": null}, "geometry": {"type": "Point", "coordinates": [139.703476, 35.648358]}}, {"type": "Feature", "properties": {"id": "n2425346209", "name": null, "type": "DRINKING_WATER", "source": "OSM", "bottle": null, "access": null, "opening_hours": null}, "geometry": {"type": "Point", "coordinates": [139.678536, 35.680389]}}, {"type": "Feature", "properties": {"id": "n2437162861", "name": null, "type": "DRINKING_WATER", "source": "OSM", "bottle": null, "access": null, "opening_hours": null}, "geometry": {"type": "Point", "coordinates": [139.7090517, 35.6780688]}}, {"type": "Feature", "properties": {"id": "n2709680250", "name": null, "type": "DRINKING_WATER", "source": "OSM", "bottle": null, "access": null, "opening_hours": null}, "geometry": {"type": "Point", "coordinates": [139.7089117, 35.6825955]}}, {"type": "Feature", "properties": {"id": "n2822556801", "name": null, "type": "DRINKING_WATER", "source": "OSM", "bottle": null, "access": null, "opening_hours": null}, "geometry": {"type": "Point", "coordinates": [139.693178, 35.685076]}}, {"type": "Feature", "properties": {"id": "n2987171717", "name": null, "type": "DRINKING_WATER", "source": "OSM", "bottle": null, "access": "yes", "opening_hours": null}, "geometry": {"type": "Point", "coordinates": [139.702708, 35.6728332]}}, {"type": "Feature", "properties": {"id": "n2987171718", "name": null, "type": "DRINKING_WATER", "source": "OSM", "bottle": null, "access": null, "opening_hours": null}, "geometry": {"type": "Point", "coordinates": [139.698328, 35.679552]}}, {"type": "Feature", "properties": {"id": "n3010293618", "name": null, "type": "DRINKING_WATER", "source": "OSM", "bottle": null, "access": null, "opening_hours": null}, "geometry": {"type": "Point", "coordinates": [139.6973448, 35.6713928]}}, {"type": "Feature", "properties": {"id": "n3010293625", "name": null, "type": "DRINKING_WATER", "source": "OSM", "bottle": null, "access": null, "opening_hours": null}, "geometry": {"type": "Point", "coordinates": [139.696001, 35.671616]}}, {"type": "Feature", "properties": {"id": "n3125772811", "name": null, "type": "DRINKING_WATER", "source": "OSM", "bottle": null, "access": null, "opening_hours": null}, "geometry": {"type": "Point", "coordinates": [139.7069691, 35.6470228]}}, {"type": "Feature", "properties": {"id": "n3197175654", "name": null, "type": "DRINKING_WATER", "source": "OSM", "bottle": null, "access": null, "opening_hours": null}, "geometry": {"type": "Point", "coordinates": [139.6914461, 35.6595389]}}, {"type": "Feature", "properties": {"id": "n3243905664", "name": null, "type": "DRINKING_WATER", "source": "OSM", "bottle": null, "access": null, "opening_hours": null}, "geometry": {"type": "Point", "coordinates": [139.6869227, 35.666732]}}, {"type": "Feature", "properties": {"id": "n3243905666", "name": null, "type": "DRINKING_WATER", "source": "OSM", "bottle": null, "access": null, "opening_hours": null}, "geometry": {"type": "Point", "coordinates": [139.6868056, 35.66334]}}, {"type": "Feature", "properties": {"id": "n3307021734", "name": null, "type": "DRINKING_WATER", "source": "OSM", "bottle": null, "access": null, "opening_hours": null}, "geometry": {"type": "Point", "coordinates": [139.7113911, 35.648117]}}, {"type": "Feature", "properties": {"id": "n3767133086", "name": null, "type": "DRINKING_WATER", "source": "OSM", "bottle": null, "access": null, "opening_hours": null}, "geometry": {"type": "Point", "coordinates": [139.7099647, 35.6532351]}}, {"type": "Feature", "properties": {"id": "n6486974128", "name": null, "type": "DRINKING_WATER", "source": "OSM", "bottle": null, "access": null, "opening_hours": null}, "geometry": {"type": "Point", "coordinates": [139.7000945, 35.6692402]}}, {"type": "Feature", "properties": {"id": "n6856536014", "name": null, "type": "DRINKING_WATER", "source": "OSM", "bottle": null, "access": null, "opening_hours": null}, "geometry": {"type": "Point", "coordinates": [139.6996603, 35.6694209]}}, {"type": "Feature", "properties": {"id": "n10938614638", "name": null, "type": "DRINKING_WATER", "source": "OSM", "bottle": null, "access": null, "opening_hours": null}, "geometry": {"type": "Point", "coordinates": [139.6989433, 35.6529513]}}, {"type": "Feature", "properties": {"id": "n10938639210", "name": null, "type": "DRINKING_WATER", "source": "OSM", "bottle": null, "access": null, "opening_hours": null}, "geometry": {"type": "Point", "coordinates": [139.6920854, 35.6696265]}}, {"type": "Feature", "properties": {"id": "n10938639211", "name": null, "type": "DRINKING_WATER", "source": "OSM", "bottle": null, "access": null, "opening_hours": null}, "geometry": {"type": "Point", "coordinates": [139.6926456, 35.6690932]}}, {"type": "Feature", "properties": {"id": "n11104266330", "name": null, "type": "DRINKING_WATER", "source": "OSM", "bottle": null, "access": null, "opening_hours": null}, "geometry": {"type": "Point", "coordinates": [139.7089998, 35.6558861]}}, {"type": "Feature", "properties": {"id": "n11764923963", "name": null, "type": "DRINKING_WATER", "source": "OSM", "bottle": null, "access": "yes", "opening_hours": null}, "geometry": {"type": "Point", "coordinates": [139.6939021, 35.6731195]}}, {"type": "Feature", "properties": {"id": "n11801219509", "name": null, "type": "DRINKING_WATER", "source": "OSM", "bottle": "yes", "access": null, "opening_hours": null}, "geometry": {"type": "Point", "coordinates": [139.6913413, 35.670661]}}, {"type": "Feature", "properties": {"id": "n12208369778", "name": null, "type": "DRINKING_WATER", "source": "OSM", "bottle": null, "access": null, "opening_hours": null}, "geometry": {"type": "Point", "coordinates": [139.7063236, 35.6782168]}}, {"type": "Feature", "properties": {"id": "n12291196342", "name": null, "type": "DRINKING_WATER", "source": "OSM", "bottle": null, "access": "yes", "opening_hours": null}, "geometry": {"type": "Point", "coordinates": [139.703547, 35.648612]}}, {"type": "Feature", "properties": {"id": "n12309060905", "name": null, "type": "DRINKING_WATER", "source": "OSM", "bottle": null, "access": null, "opening_hours": null}, "geometry": {"type": "Point", "coordinates": [139.6906059, 35.6692951]}}, {"type": "Feature", "properties": {"id": "n12339380149", "name": null, "type": "DRINKING_WATER", "source": "OSM", "bottle": null, "access": null, "opening_hours": null}, "geometry": {"type": "Point", "coordinates": [139.6962401, 35.6870661]}}, {"type": "Feature", "properties": {"id": "n12517712964", "name": null, "type": "DRINKING_WATER", "source": "OSM", "bottle": null, "access": null, "opening_hours": null}, "geometry": {"type": "Point", "coordinates": [139.7202488, 35.6562108]}}, {"type": "Feature", "properties": {"id": "n12855382339", "name": null, "type": "DRINKING_WATER", "source": "OSM", "bottle": null, "access": null, "opening_hours": null}, "geometry": {"type": "Point", "coordinates": [139.7220919, 35.647993]}}, {"type": "Feature", "properties": {"id": "n12866539106", "name": null, "type": "DRINKING_WATER", "source": "OSM", "bottle": null, "access": null, "opening_hours": null}, "geometry": {"type": "Point", "coordinates": [139.6929801, 35.655228]}}, {"type": "Feature", "properties": {"id": "n13028388471", "name": null, "type": "DRINKING_WATER", "source": "OSM", "bottle": null, "access": null, "opening_hours": null}, "geometry": {"type": "Point", "coordinates": [139.7138363, 35.6733899]}}, {"type": "Feature", "properties": {"id": "n13094442912", "name": null, "type": "DRINKING_WATER", "source": "OSM", "bottle": null, "access": null, "opening_hours": null}, "geometry": {"type": "Point", "coordinates": [139.7033041, 35.6457904]}}, {"type": "Feature", "properties": {"id": "n13583518435", "name": null, "type": "DRINKING_WATER", "source": "OSM", "bottle": null, "access": null, "opening_hours": null}, "geometry": {"type": "Point", "coordinates": [139.7058725, 35.6547304]}}, {"type": "Feature", "properties": {"id": "n14079705405", "name": null, "type": "DRINKING_WATER", "source": "OSM", "bottle": null, "access": null, "opening_hours": null}, "geometry": {"type": "Point", "coordinates": [139.7061733, 35.673087]}}]}